STARLINK-5627           
1 55364U 23013AK  23278.73891175 -.00000249  00000+0 -33759-5 0  9993
2 55364  43.0025  73.9750 0001246 277.3739  82.6962 15.02533336 38871
STARLINK-5639           
1 55365U 23013AL  23278.49826607  .00000694  00000+0  66387-4 0  9999
2 55365  43.0009  88.6015 0000805 287.1185  72.9569 15.02540525 38250
STARLINK-5654           
1 55366U 23013AM  23278.43453132 -.00000772  00000+0 -42074-4 0  9999
2 55366  43.0036  62.9781 0000619 271.5949  88.4822 15.02531855 38546
STARLINK-5635           
1 55367U 23013AN  23278.68933174  .00002169  00000+0  17551-3 0  9997
2 55367  42.9952  61.4406 0000081  50.8629 309.2220 15.02541586 39017
STARLINK-5625           
1 55368U 23013AP  23278.55860293 -.00000491  00000+0 -21312-4 0  9994
2 55368  42.9990  62.1881 0000470 285.0134  75.0656 15.02536396 38563
STARLINK-5644           
1 55369U 23013AQ  23278.76195784  .00001438  00000+0  12145-3 0  9997
2 55369  43.0017  87.1379 0000543 273.9744  86.1037 15.02542536 38726
STARLINK-5027           
1 55370U 23013AR  23278.63456222  .00000067  00000+0  20011-4 0  9991
2 55370  43.0026  87.9062 0001088 291.7235  68.3492 15.02530652 38704
STARLINK-5590           
1 55371U 23013AS  23278.75308122 -.00001765  00000+0 -11560-3 0  9996
2 55371  43.0035  87.0691 0001231 270.8021  89.2681 15.02536384 38727
STARLINK-5568           
1 55372U 23013AT  23278.75862909  .00001263  00000+0  10857-3 0  9994
2 55372  43.0023  87.1142 0001067 266.9243  93.1477 15.02540299 38723
STARLINK-5581           
1 55373U 23013AU  23278.63555953 -.00001438  00000+0 -93537-4 0  9993
2 55373  42.9956  87.8997 0000108  74.8401 285.2452 15.01726207 38708
STARLINK-5578           
1 55374U 23013AV  23278.75641195  .00004850  00000+0  37386-3 0  9999
2 55374  43.0036  87.0980 0001797 270.5548  89.5088 15.02533636 38721
STARLINK-5588           
1 55375U 23013AW  23278.48161848  .00001706  00000+0  14128-3 0  9998
2 55375  43.0015  88.4767 0001239 325.6747  34.4015 15.02543553 38257
STARLINK-5586           
1 55376U 23013AX  23278.55305440 -.00000934  00000+0 -54078-4 0  9998
2 55376  43.0014  62.1424 0000702 267.9352  92.1410 15.02534455 38565
STARLINK-5567           
1 55377U 23013AY  23278.53367347 -.00000230  00000+0 -19328-5 0  9990
2 55377  43.0036  88.0051 0001501 273.4941  86.5730 15.02537012 38695
STARLINK-5572           
1 55378U 23013AZ  23278.74974892  .00000397  00000+0  44481-4 0  9992
2 55378  43.0033  87.0468 0001192 269.1764  90.8941 15.02539193 38723
STARLINK-5569           
1 55379U 23013BA  23278.73865255  .00001011  00000+0  89903-4 0  9996
2 55379  43.0011  86.9622 0000760 292.2184  67.8578 15.02538605 38720
STARLINK-5571           
1 55380U 23013BB  23278.55083265  .00001094  00000+0  96066-4 0  9990
2 55380  43.0035  62.1268 0001405 268.7731  91.2950 15.02537690 38563
STARLINK-5575           
1 55381U 23013BC  23278.60236728  .00000729  00000+0  69018-4 0  9992
2 55381  43.0001  87.6555 0000615 273.3764  86.7008 15.02537337 38705
STARLINK-5576           
1 55382U 23013BD  23278.47828648  .00002528  00000+0  20212-3 0  9997
2 55382  43.0028  88.4519 0001258 292.8969  67.1740 15.02545892 38252
STARLINK-5531           
1 55383U 23013BE  23278.68045793  .00000655  00000+0  63531-4 0  9994
2 55383  43.0039  61.3764 0001169 269.6211  90.4497 15.02536683 39011
STARLINK-5537           
1 55384U 23013BF  23278.47495859  .00003153  00000+0  24828-3 0  9995
2 55384  43.0011  88.4233 0000731 271.0968  88.9790 15.02544715 38251
STARLINK-5556           
1 55385U 23013BG  23278.52700596 -.00000046  00000+0  11695-4 0  9997
2 55385  43.0029  87.9533 0001217 278.5322  81.5382 15.02538044 38269
STARLINK-5555           
1 55386U 23013BH  23278.59682125  .00004584  00000+0  35413-3 0  9995
2 55386  43.0020  87.6147 0001242 275.8394  84.2307 15.02539780 38700
STARLINK-5077           
1 55391U 23014A   23278.77408724 -.00000113  00000+0 -17668-5 0  9993
2 55391  70.0001 136.9769 0002820 270.3664  89.7172 14.97519292 38446
STARLINK-5085           
1 55392U 23014B   23278.91667824 -.00892471  00000+0 -52862-1 0  9995
2 55392  69.9987 118.0347 0003257 270.2182  51.6373 15.13996192 38920
STARLINK-4786           
1 55393U 23014C   23278.34558490 -.00000599  00000+0 -42388-4 0  9998
2 55393  69.9995 139.1006 0002683 273.8151  86.2701 14.98328964 39291
STARLINK-5230           
1 55394U 23014D   23278.34141298 -.00000282  00000+0 -15885-4 0  9994
2 55394  70.0010 139.0742 0002205 275.8013  84.2895 14.98325492 39293
STARLINK-5274           
1 55395U 23014E   23278.82108793 -.00000024  00000+0  57772-5 0  9996
2 55395  69.9991 137.9270 0003118 269.7716  90.3086 14.98325019 38427
STARLINK-5283           
1 55396U 23014F   23278.81691271  .00000196  00000+0  24184-4 0  9993
2 55396  69.9992 137.9235 0002958 267.6523  92.4297 14.98324927 38428
STARLINK-5224           
1 55397U 23014G   23278.58334491 -.00921297  00000+0 -56995-1 0  9994
2 55397  69.9992 119.0504 0003149 263.3051 251.4802 15.12537207 38873
STARLINK-5275           
1 55398U 23014H   23278.76685126 -.00000132  00000+0 -32541-5 0  9990
2 55398  69.9996 138.1498 0002889 270.1407  89.9421 14.98324787 38414
STARLINK-5276           
1 55399U 23014J   23278.35794135 -.00000490  00000+0 -33310-4 0  9998
2 55399  69.9996 139.1289 0002682 267.1247  92.9605 14.98325165 39299
STARLINK-5632           
1 55400U 23014K   23278.77519997 -.00000476  00000+0 -32083-4 0  9998
2 55400  69.9997 138.1800 0002851 271.7558  88.3274 14.98327017 38417
STARLINK-5076           
1 55401U 23014L   23278.36211204  .00000059  00000+0  12720-4 0  9995
2 55401  69.9997 139.1451 0002831 272.1732  87.9102 14.98331930 39299
STARLINK-5071           
1 55402U 23014M   23278.78354848 -.00000704  00000+0 -51194-4 0  9991
2 55402  69.9998 138.2110 0002766 272.3333  87.7509 14.98326555 38418
STARLINK-5597           
1 55403U 23014N   23278.77102530  .00000205  00000+0  24954-4 0  9998
2 55403  70.0001 138.1653 0002579 264.3602  95.7263 14.98323919 38417
STARLINK-5607           
1 55404U 23014P   23278.79189409 -.00000233  00000+0 -11742-4 0  9995
2 55404  70.0004 138.2408 0002729 265.3148  94.7700 14.98325972 38419
STARLINK-5623           
1 55405U 23014Q   23278.77937346 -.00000402  00000+0 -25942-4 0  9990
2 55405  69.9998 138.1954 0002794 270.5515  89.5324 14.98327653 38414
STARLINK-5630           
1 55406U 23014R   23278.79606907 -.00000184  00000+0 -76268-5 0  9994
2 55406  69.9997 138.2551 0002844 266.2000  93.8834 14.98331027 38419
STARLINK-5019           
1 55407U 23014S   23278.78772156 -.00000058  00000+0  29636-5 0  9990
2 55407  70.0004 138.2263 0002709 268.2666  91.8183 14.98327552 38415
STARLINK-5092           
1 55408U 23014T   23278.33292304 -.00000388  00000+0 -24766-4 0  9999
2 55408  69.9997 139.4454 0002475 272.5494  87.5382 14.98327951 39288
STARLINK-5047           
1 55409U 23014U   23278.79623602  .00002002  00000+0  17557-3 0  9991
2 55409  70.0015 138.2580 0002460 254.6836 105.4051 14.98313129 38414
STARLINK-5633           
1 55410U 23014V   23278.76707363 -.00001403  00000+0 -10982-3 0  9998
2 55410  70.0020 158.0228 0001908 272.1088  87.9852 14.98335531 38864
STARLINK-5605           
1 55411U 23014W   23278.33710331 -.00000620  00000+0 -44162-4 0  9999
2 55411  69.9998 139.4614 0001770 271.0073  89.0884 14.98325049 39285
STARLINK-5033           
1 55412U 23014X   23278.77548743 -.00000585  00000+0 -41203-4 0  9997
2 55412  70.0004 158.0507 0003736 282.9521  77.1220 14.98349677 37922
STARLINK-5060           
1 55413U 23014Y   23278.76289749  .00000588  00000+0  57057-4 0  9990
2 55413  70.0010 158.0065 0002581 264.8691  95.2173 14.98328103 37922
STARLINK-5620           
1 55414U 23014Z   23278.77959617 -.00000373  00000+0 -23498-4 0  9996
2 55414  70.0001 158.0635 0002663 273.1178  86.9677 14.98326035 38862
STARLINK-5618           
1 55415U 23014AA  23278.76306400  .00000360  00000+0  37999-4 0  9997
2 55415  70.0013 158.0074 0002701 263.7656  96.3196 14.98327819 37920
STARLINK-5624           
1 55416U 23014AB  23278.78794628 -.00000235  00000+0 -11946-4 0  9990
2 55416  70.0006 158.0948 0002729 264.2605  95.8243 14.98325328 37923
STARLINK-5616           
1 55417U 23014AC  23278.37535138 -.00064532  00000+0 -55208-2 0  9992
2 55417  69.9997 159.0613 0004159 234.9339 125.1430 14.97830243 38806
STARLINK-5030           
1 55418U 23014AD  23278.79629003  .00000233  00000+0  27293-4 0  9995
2 55418  70.0009 158.1246 0002611 254.8465 105.2406 14.98327599 37928
STARLINK-5629           
1 55419U 23014AE  23278.38320994 -.00001191  00000+0 -92040-4 0  9996
2 55419  69.9994 159.0888 0002733 273.1346  86.9500 14.98329467 38802
STARLINK-5604           
1 55420U 23014AF  23278.58334491 -.00919219  00000+0 -55036-1 0  9997
2 55420  69.9989 118.9791 0003206 257.9433 339.3529 15.13694898 38872
STARLINK-5598           
1 55421U 23014AG  23278.39155812 -.00001804  00000+0 -14345-3 0  9997
2 55421  69.9998 159.1183 0002621 273.2569  86.8290 14.98332528 38809
STARLINK-5006           
1 55422U 23014AH  23278.77125210  .00001654  00000+0  14641-3 0  9999
2 55422  70.0007 158.0315 0003116 283.3449  76.7363 14.98332718 37920
STARLINK-5068           
1 55423U 23014AJ  23278.80881527 -.00000006  00000+0  72966-5 0  9991
2 55423  69.9995 158.1669 0003020 266.8665  93.2148 14.98325655 37924
STARLINK-5615           
1 55425U 23014AL  23278.80046989 -.00000386  00000+0 -24586-4 0  9994
2 55425  69.9998 158.1384 0002939 268.1274  91.9548 14.98321788 37924
STARLINK-5638           
1 55426U 23014AM  23278.41660048  .00001495  00000+0  13303-3 0  9994
2 55426  69.9999 159.2069 0002744 273.7937  86.2908 14.98327613 38808
STARLINK-5073           
1 55427U 23014AN  23278.80464317  .00001010  00000+0  92476-4 0  9991
2 55427  70.0000 158.1536 0003121 273.6428  86.4374 14.98312849 37922
